[{"OBJECT_NAME":"STARLINK-36097","OBJECT_ID":"2025-298S","EPOCH":"2026-03-09T21:42:20.478816","MEAN_MOTION":15.26086669,"ECCENTRICITY":0.00039178,"INCLINATION":70.003,"RA_OF_ASC_NODE":12.9557,"ARG_OF_PERICENTER":200.4809,"MEAN_ANOMALY":159.6208,"EPHEMERIS_TYPE":0,"CLASSIFICATION_TYPE":"U","NORAD_CAT_ID":67091,"ELEMENT_SET_NO":999,"REV_AT_EPOCH":1327,"BSTAR":0.0027728212,"MEAN_MOTION_DOT":0.00072258,"MEAN_MOTION_DDOT":0},{"OBJECT_NAME":"FENGYUN 1C DEB","OBJECT_ID":"1999-025CCN","EPOCH":"2026-03-09T02:54:06.759648","MEAN_MOTION":15.32125336,"ECCENTRICITY":0.00635941,"INCLINATION":99.8406,"RA_OF_ASC_NODE":208.081,"ARG_OF_PERICENTER":3.8747,"MEAN_ANOMALY":356.2966,"EPHEMERIS_TYPE":0,"CLASSIFICATION_TYPE":"U","NORAD_CAT_ID":31680,"ELEMENT_SET_NO":999,"REV_AT_EPOCH":1491,"BSTAR":0.0015780335,"MEAN_MOTION_DOT":0.00052353,"MEAN_MOTION_DDOT":0}]
